GLOBALSTAR M063         
1 26081U 00008A   24312.47061571 -.00000078  00000+0  68790-4 0  9997
2 26081  51.9973 335.4918 0004632 247.6815 257.2462 11.86161545131263
GLOBALSTAR M062         
1 26082U 00008B   24312.49763500 -.00000123  00000+0 -17792-3 0  9998
2 26082  51.9874  27.6959 0006715   2.2986  11.5214 12.43451189469043
GLOBALSTAR M060         
1 26083U 00008C   24312.78180730 -.00000080  00000+0  10763-3 0  9991
2 26083  52.0034 315.5471 0003529  36.4412 134.6841 12.17645917125570
GLOBALSTAR M064         
1 26084U 00008D   24312.70877908 -.00000100  00000+0 -23616-3 0  9999
2 26084  52.0033  76.2991 0001263  25.3567 334.7327 11.88525762140873
GLOBALSTAR M065         
1 31571U 07020A   24312.61163667 -.00000140  00000+0 -20442-3 0  9995
2 31571  51.9878 180.6622 0009873 168.3000 209.4332 12.61978352805434
GLOBALSTAR M069         
1 31573U 07020C   24312.24026453 -.00000075  00000+0  16342-3 0  9997
2 31573  51.9920 139.3294 0001831  72.8901  99.1525 12.53304291806485
GLOBALSTAR M072         
1 31574U 07020D   24311.51932681 -.00000041  00000+0  36751-3 0  9995
2 31574  52.0079 235.8836 0000796  74.4927  96.9119 12.56727770804691
GLOBALSTAR M071         
1 31576U 07020F   24312.85096706 -.00000072  00000+0  17567-3 0  9992
2 31576  52.0039 140.8617 0001726  67.1600  14.0012 12.62262955806514
